[{"OBJECT_NAME":"STARLINK-36533","OBJECT_ID":"2026-020AC","EPOCH":"2026-03-09T16:00:06.953760","MEAN_MOTION":15.67305458,"ECCENTRICITY":0.0003498,"INCLINATION":42.9984,"RA_OF_ASC_NODE":142.2096,"ARG_OF_PERICENTER":341.2459,"MEAN_ANOMALY":18.8278,"EPHEMERIS_TYPE":0,"CLASSIFICATION_TYPE":"U","NORAD_CAT_ID":67643,"ELEMENT_SET_NO":999,"REV_AT_EPOCH":608,"BSTAR":-0.0046634327,"MEAN_MOTION_DOT":-0.00488163,"MEAN_MOTION_DDOT":0},{"OBJECT_NAME":"SL-12 R\/B(AUX MOTOR)","OBJECT_ID":"1983-084G","EPOCH":"2026-03-09T05:49:38.402976","MEAN_MOTION":4.93626286,"ECCENTRICITY":0.53998211,"INCLINATION":51.9268,"RA_OF_ASC_NODE":76.139,"ARG_OF_PERICENTER":105.3588,"MEAN_ANOMALY":318.1318,"EPHEMERIS_TYPE":0,"CLASSIFICATION_TYPE":"U","NORAD_CAT_ID":14277,"ELEMENT_SET_NO":999,"REV_AT_EPOCH":71473,"BSTAR":0.0011325208,"MEAN_MOTION_DOT":3.989e-5,"MEAN_MOTION_DDOT":0}]
